[{"OBJECT_NAME":"STARLINK-36815","OBJECT_ID":"2026-057V","EPOCH":"2026-04-09T19:35:51.577152","MEAN_MOTION":15.80850768,"ECCENTRICITY":0.0001417,"INCLINATION":97.2843,"RA_OF_ASC_NODE":223.7901,"ARG_OF_PERICENTER":52.4309,"MEAN_ANOMALY":307.7087,"EPHEMERIS_TYPE":0,"CLASSIFICATION_TYPE":"U","NORAD_CAT_ID":68313,"ELEMENT_SET_NO":999,"REV_AT_EPOCH":318,"BSTAR":0.0012834,"MEAN_MOTION_DOT":0.00253363,"MEAN_MOTION_DDOT":0},{"OBJECT_NAME":"STARLINK-37155","OBJECT_ID":"2026-057W","EPOCH":"2026-04-09T19:33:40.899744","MEAN_MOTION":15.80836975,"ECCENTRICITY":0.0001135,"INCLINATION":97.2844,"RA_OF_ASC_NODE":223.7914,"ARG_OF_PERICENTER":68.5687,"MEAN_ANOMALY":291.5702,"EPHEMERIS_TYPE":0,"CLASSIFICATION_TYPE":"U","NORAD_CAT_ID":68314,"ELEMENT_SET_NO":999,"REV_AT_EPOCH":318,"BSTAR":0.00063784,"MEAN_MOTION_DOT":0.00123901,"MEAN_MOTION_DDOT":0},{"OBJECT_NAME":"STARLINK-37150","OBJECT_ID":"2026-057X","EPOCH":"2026-04-09T13:30:08.475840","MEAN_MOTION":15.80862577,"ECCENTRICITY":0.00013485,"INCLINATION":97.2841,"RA_OF_ASC_NODE":223.5228,"ARG_OF_PERICENTER":109.4642,"MEAN_ANOMALY":250.6772,"EPHEMERIS_TYPE":0,"CLASSIFICATION_TYPE":"U","NORAD_CAT_ID":68315,"ELEMENT_SET_NO":999,"REV_AT_EPOCH":314,"BSTAR":0.00066618661,"MEAN_MOTION_DOT":0.00129653,"MEAN_MOTION_DDOT":0},{"OBJECT_NAME":"STARLINK-37154","OBJECT_ID":"2026-057Y","EPOCH":"2026-04-09T13:26:53.752704","MEAN_MOTION":15.80820928,"ECCENTRICITY":0.00013537,"INCLINATION":97.2843,"RA_OF_ASC_NODE":223.5248,"ARG_OF_PERICENTER":69.0524,"MEAN_ANOMALY":291.0889,"EPHEMERIS_TYPE":0,"CLASSIFICATION_TYPE":"U","NORAD_CAT_ID":68316,"ELEMENT_SET_NO":999,"REV_AT_EPOCH":314,"BSTAR":9.5547098e-5,"MEAN_MOTION_DOT":0.00018202,"MEAN_MOTION_DDOT":0},{"OBJECT_NAME":"STARLINK-37139","OBJECT_ID":"2026-057Z","EPOCH":"2026-04-09T13:27:58.863744","MEAN_MOTION":15.80815644,"ECCENTRICITY":0.00016624,"INCLINATION":97.2843,"RA_OF_ASC_NODE":223.5242,"ARG_OF_PERICENTER":81.7007,"MEAN_ANOMALY":278.445,"EPHEMERIS_TYPE":0,"CLASSIFICATION_TYPE":"U","NORAD_CAT_ID":68317,"ELEMENT_SET_NO":999,"REV_AT_EPOCH":314,"BSTAR":0.00011229277,"MEAN_MOTION_DOT":0.0002142,"MEAN_MOTION_DDOT":0},{"OBJECT_NAME":"STARLINK-37113","OBJECT_ID":"2026-057AA","EPOCH":"2026-04-09T11:54:39.449088","MEAN_MOTION":15.8086553,"ECCENTRICITY":0.00014348,"INCLINATION":97.284,"RA_OF_ASC_NODE":223.4591,"ARG_OF_PERICENTER":121.2784,"MEAN_ANOMALY":238.8625,"EPHEMERIS_TYPE":0,"CLASSIFICATION_TYPE":"U","NORAD_CAT_ID":68318,"ELEMENT_SET_NO":999,"REV_AT_EPOCH":313,"BSTAR":0.00047083451,"MEAN_MOTION_DOT":0.000912,"MEAN_MOTION_DDOT":0},{"OBJECT_NAME":"PROGRESS-MS 33","OBJECT_ID":"2026-058A","EPOCH":"2026-04-09T19:29:00.944736","MEAN_MOTION":15.48850892,"ECCENTRICITY":0.0006426,"INCLINATION":51.6329,"RA_OF_ASC_NODE":278.4805,"ARG_OF_PERICENTER":293.1753,"MEAN_ANOMALY":66.8558,"EPHEMERIS_TYPE":0,"CLASSIFICATION_TYPE":"U","NORAD_CAT_ID":68319,"ELEMENT_SET_NO":999,"REV_AT_EPOCH":268,"BSTAR":0.00012437,"MEAN_MOTION_DOT":6.374e-5,"MEAN_MOTION_DDOT":0},{"OBJECT_NAME":"STARLINK-36987","OBJECT_ID":"2026-059A","EPOCH":"2026-04-09T19:07:31.612224","MEAN_MOTION":15.80967251,"ECCENTRICITY":7.0e-5,"INCLINATION":53.1578,"RA_OF_ASC_NODE":206.9951,"ARG_OF_PERICENTER":104.8957,"MEAN_ANOMALY":255.2144,"EPHEMERIS_TYPE":0,"CLASSIFICATION_TYPE":"U","NORAD_CAT_ID":68321,"ELEMENT_SET_NO":999,"REV_AT_EPOCH":289,"BSTAR":0.0013474,"MEAN_MOTION_DOT":0.00275078,"MEAN_MOTION_DDOT":0},{"OBJECT_NAME":"STARLINK-37088","OBJECT_ID":"2026-059B","EPOCH":"2026-04-09T19:05:21.765120","MEAN_MOTION":15.80972088,"ECCENTRICITY":8.42e-5,"INCLINATION":53.1579,"RA_OF_ASC_NODE":206.9846,"ARG_OF_PERICENTER":132.8567,"MEAN_ANOMALY":227.2527,"EPHEMERIS_TYPE":0,"CLASSIFICATION_TYPE":"U","NORAD_CAT_ID":68322,"ELEMENT_SET_NO":999,"REV_AT_EPOCH":289,"BSTAR":0.0012966,"MEAN_MOTION_DOT":0.00264402,"MEAN_MOTION_DDOT":0},{"OBJECT_NAME":"STARLINK-36983","OBJECT_ID":"2026-059C","EPOCH":"2026-04-09T19:06:26.827776","MEAN_MOTION":15.80961342,"ECCENTRICITY":7.51e-5,"INCLINATION":53.1579,"RA_OF_ASC_NODE":206.9898,"ARG_OF_PERICENTER":35.0371,"MEAN_ANOMALY":325.0701,"EPHEMERIS_TYPE":0,"CLASSIFICATION_TYPE":"U","NORAD_CAT_ID":68323,"ELEMENT_SET_NO":999,"REV_AT_EPOCH":289,"BSTAR":0.001371,"MEAN_MOTION_DOT":0.00279996,"MEAN_MOTION_DDOT":0},{"OBJECT_NAME":"STARLINK-37164","OBJECT_ID":"2026-059D","EPOCH":"2026-04-09T19:04:17.399712","MEAN_MOTION":15.80972005,"ECCENTRICITY":0.0001782,"INCLINATION":53.1575,"RA_OF_ASC_NODE":206.979,"ARG_OF_PERICENTER":34.8313,"MEAN_ANOMALY":325.2826,"EPHEMERIS_TYPE":0,"CLASSIFICATION_TYPE":"U","NORAD_CAT_ID":68324,"ELEMENT_SET_NO":999,"REV_AT_EPOCH":402,"BSTAR":0.00072839,"MEAN_MOTION_DOT":0.0014619,"MEAN_MOTION_DDOT":0},{"OBJECT_NAME":"STARLINK-36309","OBJECT_ID":"2026-059E","EPOCH":"2026-04-09T17:32:10.598208","MEAN_MOTION":15.80918819,"ECCENTRICITY":0.00015,"INCLINATION":53.1575,"RA_OF_ASC_NODE":207.2912,"ARG_OF_PERICENTER":42.0984,"MEAN_ANOMALY":318.0154,"EPHEMERIS_TYPE":0,"CLASSIFICATION_TYPE":"U","NORAD_CAT_ID":68325,"ELEMENT_SET_NO":999,"REV_AT_EPOCH":288,"BSTAR":0.0010022,"MEAN_MOTION_DOT":0.00202223,"MEAN_MOTION_DDOT":0},{"OBJECT_NAME":"STARLINK-37206","OBJECT_ID":"2026-059F","EPOCH":"2026-04-09T17:31:04.846080","MEAN_MOTION":15.80950258,"ECCENTRICITY":0.0001613,"INCLINATION":53.1577,"RA_OF_ASC_NODE":207.2865,"ARG_OF_PERICENTER":58.7942,"MEAN_ANOMALY":301.3239,"EPHEMERIS_TYPE":0,"CLASSIFICATION_TYPE":"U","NORAD_CAT_ID":68326,"ELEMENT_SET_NO":999,"REV_AT_EPOCH":288,"BSTAR":0.0009288,"MEAN_MOTION_DOT":0.00187315,"MEAN_MOTION_DDOT":0},{"OBJECT_NAME":"STARLINK-37199","OBJECT_ID":"2026-059G","EPOCH":"2026-04-09T20:00:01.999008","MEAN_MOTION":15.76729082,"ECCENTRICITY":9.45e-5,"INCLINATION":53.1585,"RA_OF_ASC_NODE":206.7739,"ARG_OF_PERICENTER":64.0503,"MEAN_ANOMALY":161.9025,"EPHEMERIS_TYPE":0,"CLASSIFICATION_TYPE":"U","NORAD_CAT_ID":68327,"ELEMENT_SET_NO":999,"REV_AT_EPOCH":404,"BSTAR":-0.013406,"MEAN_MOTION_DOT":-0.01909307,"MEAN_MOTION_DDOT":0},{"OBJECT_NAME":"STARLINK-36245","OBJECT_ID":"2026-059H","EPOCH":"2026-04-09T18:58:53.212224","MEAN_MOTION":15.80962318,"ECCENTRICITY":9.73e-5,"INCLINATION":53.1574,"RA_OF_ASC_NODE":206.9548,"ARG_OF_PERICENTER":127.892,"MEAN_ANOMALY":232.2191,"EPHEMERIS_TYPE":0,"CLASSIFICATION_TYPE":"U","NORAD_CAT_ID":68328,"ELEMENT_SET_NO":999,"REV_AT_EPOCH":289,"BSTAR":0.0013573,"MEAN_MOTION_DOT":0.00277097,"MEAN_MOTION_DDOT":0},{"OBJECT_NAME":"STARLINK-37204","OBJECT_ID":"2026-059J","EPOCH":"2026-04-09T17:28:55.977024","MEAN_MOTION":15.8091159,"ECCENTRICITY":4.43e-5,"INCLINATION":53.1573,"RA_OF_ASC_NODE":207.2768,"ARG_OF_PERICENTER":119.2738,"MEAN_ANOMALY":240.8329,"EPHEMERIS_TYPE":0,"CLASSIFICATION_TYPE":"U","NORAD_CAT_ID":68329,"ELEMENT_SET_NO":999,"REV_AT_EPOCH":288,"BSTAR":0.00082692,"MEAN_MOTION_DOT":0.00165979,"MEAN_MOTION_DDOT":0},{"OBJECT_NAME":"STARLINK-37001","OBJECT_ID":"2026-059K","EPOCH":"2026-04-09T20:00:01.999008","MEAN_MOTION":15.74091694,"ECCENTRICITY":8.7e-5,"INCLINATION":53.1588,"RA_OF_ASC_NODE":206.7721,"ARG_OF_PERICENTER":65.9209,"MEAN_ANOMALY":160.4383,"EPHEMERIS_TYPE":0,"CLASSIFICATION_TYPE":"U","NORAD_CAT_ID":68330,"ELEMENT_SET_NO":999,"REV_AT_EPOCH":404,"BSTAR":-0.01505,"MEAN_MOTION_DOT":-0.01907328,"MEAN_MOTION_DDOT":0}]
