STARLINK-36815          
1 68313U 26057V   26099.81656918  .00253363  00000+0  12834-2 0  9992
2 68313  97.2843 223.7901 0001417  52.4309 307.7087 15.80850768  3188
STARLINK-37155          
1 68314U 26057W   26099.81505671  .00123901  00000+0  63784-3 0  9997
2 68314  97.2844 223.7914 0001135  68.5687 291.5702 15.80836975  3186
STARLINK-37150          
1 68315U 26057X   26099.56259810  .00129653  00000+0  66619-3 0  9991
2 68315  97.2841 223.5228 0001348 109.4642 250.6772 15.80862577  3148
STARLINK-37154          
1 68316U 26057Y   26099.56034436  .00018202  00000+0  95547-4 0  9997
2 68316  97.2843 223.5248 0001353  69.0524 291.0889 15.80820928  3141
STARLINK-37139          
1 68317U 26057Z   26099.56109796  .00021420  00000+0  11229-3 0  9990
2 68317  97.2843 223.5242 0001662  81.7007 278.4450 15.80815644  3148
STARLINK-37113          
1 68318U 26057AA  26099.49628992  .00091200  00000+0  47083-3 0  9997
2 68318  97.2840 223.4591 0001434 121.2784 238.8625 15.80865530  3133
PROGRESS-MS 33          
1 68319U 26058A   26099.81181649  .00006374  00000+0  12437-3 0  9991
2 68319  51.6329 278.4805 0006426 293.1753  66.8558 15.48850892  2681
STARLINK-36987          
1 68321U 26059A   26099.79689366  .00275078  00000+0  13474-2 0  9991
2 68321  53.1578 206.9951 0000700 104.8957 255.2144 15.80967251  2890
STARLINK-37088          
1 68322U 26059B   26099.79539080  .00264402  00000+0  12966-2 0  9993
2 68322  53.1579 206.9846 0000842 132.8567 227.2527 15.80972088  2898
STARLINK-36983          
1 68323U 26059C   26099.79614384  .00279996  00000+0  13710-2 0  9997
2 68323  53.1579 206.9898 0000751  35.0371 325.0701 15.80961342  2894
STARLINK-37164          
1 68324U 26059D   26099.79464583  .00146190  00000+0  72839-3 0  9999
2 68324  53.1575 206.9790 0001782  34.8313 325.2826 15.80972005  4025
STARLINK-36309          
1 68325U 26059E   26099.73067822  .00202223  00000+0  10022-2 0  9994
2 68325  53.1575 207.2912 0001500  42.0984 318.0154 15.80918819  2888
STARLINK-37206          
1 68326U 26059F   26099.72991720  .00187315  00000+0  92880-3 0  9994
2 68326  53.1577 207.2865 0001613  58.7942 301.3239 15.80950258  2883
STARLINK-37199          
1 68327U 26059G   26099.83335647 -.01909307  00000+0 -13406-1 0  9998
2 68327  53.1585 206.7739 0000945  64.0503 161.9025 15.76729082  4044
STARLINK-36245          
1 68328U 26059H   26099.79089366  .00277097  00000+0  13573-2 0  9995
2 68328  53.1574 206.9548 0000973 127.8920 232.2191 15.80962318  2898
STARLINK-37204          
1 68329U 26059J   26099.72842566  .00165979  00000+0  82692-3 0  9992
2 68329  53.1573 207.2768 0000443 119.2738 240.8329 15.80911590  2883
STARLINK-37001          
1 68330U 26059K   26099.83335647 -.01907328  00000+0 -15050-1 0  9990
2 68330  53.1588 206.7721 0000870  65.9209 160.4383 15.74091694  4042
